satname,norad_id,inclination_deg,eccentricity,mean_motion_rev_per_day,perigee_km,apogee_km,l1,l2
STARLINK-1142,45093,53.0229,0.0009117,15.86001488,307.40550288077065,319.6070452266804,1 45093U 20006BB  25343.91670139  .00565543  00000+0  21058-2 0  9997,2 45093  53.0229 204.4678 0009117 193.1263 307.2019 15.86001488  5893
STARLINK-1152,45096,53.0443,0.0004745,15.27845843,478.9979267454046,485.50843702801467,1 45096U 20006BE  25343.82364700  .00045674  00000+0  16598-2 0  9995,2 45096  53.0443 266.8290 0004745  32.5008 327.6282 15.27845843323809
STARLINK-1184,45098,53.0551,0.0001376,15.06401883,546.2528596530237,548.1587139879566,1 45098U 20006BG  25343.88044955  .00003830  00000+0  27583-3 0  9995,2 45098  53.0551 289.7903 0001376  89.5314 270.5833 15.06401883323486
STARLINK-1193,45100,53.0563,0.0001372,15.06402117,546.2549127138245,548.1552265777354,1 45100U 20006BJ  25343.87676502  .00003547  00000+0  25685-3 0  9993,2 45100  53.0563 289.8049 0001372  86.6593 273.4553 15.06402117323480
STARLINK-1143,45179,53.0526,0.0003563,15.45508954,427.45732442038207,432.3087194880263,1 45179U 20012B   25343.18179697  .00090492  00000+0  18433-2 0  9990,2 45179  53.0526  46.5637 0003563 170.6285 189.4789 15.45508954321857
STARLINK-1202,45183,53.055,0.0001673,15.06422768,545.983179036768,548.3003773159453,1 45183U 20012F   25343.74037516  .00004079  00000+0  29241-3 0  9996,2 45183  53.0550  90.4183 0001673  75.4420 284.6755 15.06422768321289
STARLINK-1216,45185,53.056,0.0001313,15.06400332,546.3012422742268,548.1198385383368,1 45185U 20012H   25343.73300751  .00002189  00000+0  16583-3 0  9996,2 45185  53.0560  90.4479 0001313  87.5862 272.5277 15.06400332321227
STARLINK-1225,45187,53.0545,0.0001182,15.06414028,546.3499933545982,547.9871355900386,1 45187U 20012K   25343.68509802  .00006144  00000+0  43086-3 0  9993,2 45187  53.0545  90.6633 0001182  86.0808 274.0316 15.06414028321266
STARLINK-1230,45189,53.0551,0.0001043,15.06397914,546.4956367138029,547.9402657566307,1 45189U 20012M   25343.48973977  .00001728  00000+0  13486-3 0  9995,2 45189  53.0551  91.5440 0001043  83.9089 276.2019 15.06397914318460
STARLINK-1234,45190,53.0514,0.0006266,15.42465726,434.56321382450733,443.10624279442436,1 45190U 20012N   25343.56952583  .00090542  00000+0  20433-2 0  9997,2 45190  53.0514  39.1650 0006266 344.5084  15.5728 15.42465726321883
STARLINK-1269,45197,53.0534,0.0001441,15.06408544,546.1874329788116,548.183310886403,1 45197U 20012V   25343.69983463  .00005317  00000+0  37551-3 0  9995,2 45197  53.0534  90.5986 0001441  93.4205 266.6949 15.06408544321249
STARLINK-1154,45198,53.0556,0.0001233,15.06408597,546.3313172683493,548.0391017252123,1 45198U 20012W   25343.49157642  .00001077  00000+0  91188-4 0  9992,2 45198  53.0556  71.5336 0001233  64.7543 295.3574 15.06408597321462
STARLINK-1199,45201,53.0557,0.0001427,15.06410737,546.1904082317806,548.1668933185128,1 45201U 20012Z   25343.63532763  .00000972  00000+0  84086-4 0  9996,2 45201  53.0557  70.8891 0001427  85.7054 274.4098 15.06410737321548
STARLINK-1209,45206,53.052,0.0006531,15.35803942,454.0685782479404,462.9986373958782,1 45206U 20012AE  25343.65818421  .00065142  00000+0  18372-2 0  9994,2 45206  53.0520  41.1089 0006531 349.0528  11.0331 15.35803942321019
STARLINK-1210,45207,53.0209,0.000316,15.66885063,365.69105843108537,369.9545050131337,1 45207U 20012AF  25343.91670139  .00241679  00000+0  21793-2 0  9998,2 45207  53.0209 353.8165 0003160 149.6704 158.0770 15.66885063  5776
STARLINK-1231,45212,53.0516,0.0003597,15.14979058,518.5605041529288,523.5237736254458,1 45212U 20012AL  25343.66269062  .00033557  00000+0  17849-2 0  9996,2 45212  53.0516  67.1251 0003597 153.3401 206.7777 15.14979058321550
STARLINK-1271,45217,53.0555,0.0001365,15.06411343,546.2314881622997,548.1220988279229,1 45217U 20012AR  25343.68692869  .00005032  00000+0  35638-3 0  9992,2 45217  53.0555  70.6563 0001365  89.7636 270.3509 15.06411343321555
STARLINK-1191,45222,53.0546,0.0001067,15.06415784,546.4242531444934,547.9021122034756,1 45222U 20012AW  25343.49710743  .00012248  00000+0  83933-3 0  9997,2 45222  53.0546  51.5092 0001067 106.4239 253.6868 15.06415784321804
STARLINK-1212,45223,53.0571,0.0001598,15.06418251,546.0489600556875,548.262283577621,1 45223U 20012AX  25343.51562523  .00007481  00000+0  52035-3 0  9994,2 45223  53.0571  52.0848 0001598  89.3548 270.7624 15.06418251321801
STARLINK-1215,45225,53.0561,0.0001513,15.06410876,546.130424571752,548.2260249587662,1 45225U 20012AZ  25343.60401769  .00010997  00000+0  75581-3 0  9997,2 45225  53.0561  51.0265 0001513  97.6461 262.4700 15.06410876321771
STARLINK-1221,45227,53.0693,0.0005394,15.38422417,447.0903116246209,454.4573406238442,1 45227U 20012BB  25343.71083446  .00022335  00000+0  58903-3 0  9997,2 45227  53.0693 334.8296 0005394  81.6402 278.5212 15.38422417322848
STARLINK-1222,45228,53.0555,8.39e-05,15.13864123,523.8500161165539,525.0082667150828,1 45228U 20012BC  25343.91670139  .02033253  00000+0  10142+0 0  9993,2 45228  53.0555  49.1811 0000839  84.4196 222.0961 15.13864123  5823
STARLINK-1226,45229,53.0545,0.0001498,15.06400388,546.1729517385729,548.2477858102566,1 45229U 20012BD  25343.46763157  .00003895  00000+0  28020-3 0  9992,2 45229  53.0545  51.6406 0001498  87.1616 272.9544 15.06400388321698
STARLINK-1227,45230,53.0556,0.0001378,15.06412353,546.2193902169674,548.1280058453458,1 45230U 20012BE  25343.46393025  .00001146  00000+0  95755-4 0  9994,2 45230  53.0556  51.6567 0001378  93.8220 266.2927 15.06412353321812
STARLINK-1246,45235,53.0546,0.0001003,15.06434885,546.410040764169,547.7992442376553,1 45235U 20012BK  25343.74407126  .00013830  00000+0  94462-3 0  9994,2 45235  53.0546  90.3991 0001003  80.0436 280.0666 15.06434885321301
STARLINK-1270,45237,53.0569,7.84e-05,15.06427002,546.5858610945634,547.671742772307,1 45237U 20012BM  25343.61504122  .00002036  00000+0  15543-3 0  9995,2 45237  53.0569  50.9780 0000784  97.2893 262.8186 15.06427002321823
STARLINK-1279,45360,53.0507,0.0009121,15.4019943,439.29636386864786,451.744079372329,1 45360U 20019A   25343.84947850  .00111971  00000+0  27127-2 0  9992,2 45360  53.0507 168.7780 0009121 139.4818 220.6866 15.40199430316752
STARLINK-1301,45361,53.0499,0.0008981,15.43093126,430.86615037977936,443.10747577282655,1 45361U 20019B   25343.81001686  .00115579  00000+0  25416-2 0  9995,2 45361  53.0499 177.9476 0008981 134.0028 226.1718 15.43093126316636
STARLINK-1306,45362,53.0385,0.0002114,15.8632681,311.17694668483546,314.00578663826036,1 45362U 20019C   25343.91670139  .00281334  00000+0  10686-2 0  9998,2 45362  53.0385 156.8737 0002114  78.7604 171.1137 15.86326810  6022
STARLINK-1262,45366,53.0532,0.0001305,15.06393084,546.3289938103162,548.1365153162578,1 45366U 20019G   25343.65930780 -.00000003  00000+0  18706-4 0  9990,2 45366  53.0532 210.7785 0001305  89.9072 270.2066 15.06393084316167
STARLINK-1273,45367,53.0536,0.000138,15.06391173,546.2829097196673,548.1943133884552,1 45367U 20019H   25342.88525786  .00000751  00000+0  69289-4 0  9992,2 45367  53.0536 214.2473 0001380  86.8632 273.2515 15.06391173316042
STARLINK-1276,45368,53.0546,0.0001303,15.06393674,546.3285708416151,548.1333217284164,1 45368U 20019J   25343.05481497  .00000528  00000+0  54369-4 0  9998,2 45368  53.0546 213.4959 0001303  90.1893 269.9245 15.06393674316079
STARLINK-1277,45369,53.0532,0.0001526,15.06372209,546.2399134722264,548.3535558480453,1 45369U 20019K   25343.04752192  .00003029  00000+0  22231-3 0  9992,2 45369  53.0532 214.1520 0001526  95.4438 264.6725 15.06372209316062
STARLINK-1281,45370,53.0551,0.000158,15.0639454,546.1340843862863,548.3224998185906,1 45370U 20019L   25343.37548784  .00002276  00000+0  17168-3 0  9996,2 45370  53.0551 212.0576 0001580  89.9552 270.1618 15.06394540316120
STARLINK-1300,45374,53.0532,0.0001727,15.06402303,546.008493106985,548.4005060609416,1 45374U 20019Q   25343.66299189  .00001015  00000+0  87007-4 0  9994,2 45374  53.0532 210.7628 0001727  99.6380 260.4804 15.06402303316166
STARLINK-1302,45375,53.0526,0.0001084,15.06398325,546.4659832366242,547.9673999169581,1 45375U 20019R   25343.61139672  .00003180  00000+0  23229-3 0  9990,2 45375  53.0526 210.9948 0001084  99.1319 260.9793 15.06398325316159
STARLINK-1304,45376,53.0523,0.0001272,15.06389696,546.3622300406387,548.1240467478465,1 45376U 20019S   25343.62982326  .00006756  00000+0  47214-3 0  9996,2 45376  53.0523 210.9105 0001272 103.7270 256.3861 15.06389696316155
STARLINK-1305,45377,53.0503,0.0008682,15.36617434,450.18698361196584,462.05398831058847,1 45377U 20019T   25343.32366870  .00084727  00000+0  23178-2 0  9990,2 45377  53.0503 202.4472 0008682 123.6816 236.5016 15.36617434316256
STARLINK-1319,45379,53.0516,0.0007065,15.41625557,436.4933463361376,446.1292267650342,1 45379U 20019V   25343.87466329  .00098300  00000+0  22780-2 0  9992,2 45379  53.0516 200.9581 0007065 130.7945 229.3673 15.41625557316320
STARLINK-1266,45383,53.0543,0.0001466,15.06407542,546.1731901810372,548.2036956008942,1 45383U 20019Z   25343.31834026  .00002575  00000+0  19168-3 0  9995,2 45383  53.0543 192.3131 0001466  96.2687 263.8469 15.06407542316383
STARLINK-1267,45384,53.0542,0.0002726,15.06417187,545.2710471018436,549.046718417123,1 45384U 20019AA  25343.83443740  .00005578  00000+0  39288-3 0  9993,2 45384  53.0542 190.6531 0002726  86.6737 273.4564 15.06417187316454
STARLINK-1272,45386,53.0506,0.0008957,15.39755797,440.71771881723544,452.9439662103159,1 45386U 20019AC  25343.83903854  .00105427  00000+0  25946-2 0  9991,2 45386  53.0506 179.3982 0008957 138.5104 221.6581 15.39755797316617
STARLINK-1274,45387,53.0327,0.0005365,15.33590617,461.4385530272093,468.78135700994426,1 45387U 20019AD  25343.81340007  .00081358  00000+0  24541-2 0  9991,2 45387  53.0327 168.3700 0005365 105.1120 255.0475 15.33590617316764
